ONEWEB-0158             
1 48054U 21025N   26168.81391551 -.00000009  00000+0 -58698-4 0  9997
2 48054  87.8964 320.0921 0001587  96.0892 264.0418 13.13471078253715
ONEWEB-0157             
1 48055U 21025P   26168.45842377 -.00000134  00000+0 -40129-3 0  9993
2 48055  87.8958 320.1686 0002101 106.1196 254.0164 13.13470380253601
ONEWEB-0162             
1 48056U 21025Q   26168.51075964 -.00000102  00000+0 -31553-3 0  9997
2 48056  87.8960 320.1589 0001960  94.1493 265.9860 13.13469311253588
ONEWEB-0155             
1 48057U 21025R   26168.44148467 -.00000196  00000+0 -57182-3 0  9998
2 48057  87.8958 320.1687 0001826 102.4443 257.6891 13.13470044253716
ONEWEB-0149             
1 48058U 21025S   26168.46349957 -.00000078  00000+0 -24972-3 0  9998
2 48058  87.8961 320.1681 0002032  93.5231 266.6131 13.13470927253526
ONEWEB-0148             
1 48059U 21025T   26168.80714338  .00000153  00000+0  38346-3 0  9998
2 48059  87.8955 320.1066 0002400  92.3841 267.7563 13.13469811253699
ONEWEB-0160             
1 48060U 21025U   26168.44317310 -.00000222  00000+0 -64183-3 0  9996
2 48060  87.8955 320.1750 0001395  75.4995 284.6289 13.13471245253591
ONEWEB-0163             
1 48061U 21025V   26168.80882616  .00000124  00000+0  30546-3 0  9998
2 48061  87.8962 320.0967 0001987 104.1018 256.0332 13.13470854253768
ONEWEB-0159             
1 48062U 21025W   26168.80036765  .00000263  00000+0  68419-3 0  9999
2 48062  87.8964 320.0921 0001940 104.0917 256.0428 13.13470486253685
ONEWEB-0164             
1 48063U 21025X   26168.78174803  .00000075  00000+0  17152-3 0  9992
2 48063  87.8965 320.1022 0001780  96.1699 263.9633 13.13469704253664
ONEWEB-0167             
1 48064U 21025Y   26168.80967162  .00000096  00000+0  22748-3 0  9994
2 48064  87.8954 320.1063 0001755 118.3271 241.8035 13.13468167253655
ONEWEB-0166             
1 48065U 21025Z   26168.37545534 -.00000762  00000+0 -21224-2 0  9991
2 48065  87.8965 320.1641 0002086  96.0109 264.1258 13.13466637253677
ONEWEB-0151             
1 48066U 21025AA  26168.37715061 -.00000288  00000+0 -82482-3 0  9993
2 48066  87.8955 320.1806 0001755 100.4190 259.7137 13.13470935253618
ONEWEB-0170             
1 48067U 21025AB  26168.46179755 -.00000124  00000+0 -37379-3 0  9992
2 48067  87.8957 320.1658 0001375  96.8245 263.3041 13.13470707253581
ONEWEB-0168             
1 48068U 21025AC  26168.44656066 -.00000263  00000+0 -75565-3 0  9999
2 48068  87.8963 320.1685 0001982 100.7918 259.3435 13.13470004253598
ONEWEB-0173             
1 48069U 21025AD  26168.43809907 -.00000176  00000+0 -51768-3 0  9995
2 48069  87.8958 320.1719 0001953 108.1824 251.9518 13.13469718253834
ONEWEB-0171             
1 48070U 21025AE  26168.78005358  .00000184  00000+0  46759-3 0  9994
2 48070  87.8953 320.1121 0001781  98.8658 261.2673 13.13471982253693
ONEWEB-0172             
1 48071U 21025AF  26168.45501704 -.00000240  00000+0 -69079-3 0  9990
2 48071  87.8960 320.1668 0001808 102.5391 257.5941 13.13471323254545
ONEWEB-0174             
1 48072U 21025AG  26168.81730084 -.00000091  00000+0 -28418-3 0  9992
2 48072  87.8959 320.0936 0001993  96.4446 263.6910 13.13469992253911
ONEWEB-0175             
1 48073U 21025AH  26168.46688023  .00000108  00000+0  25991-3 0  9999
2 48073  87.8964 320.1479 0001553 103.3068 256.8234 13.13471728253521
ONEWEB-0177             
1 48074U 21025AJ  26168.78343713  .00000142  00000+0  35318-3 0  9991
2 48074  87.8961 320.1034 0002049 100.2512 259.8848 13.13471095253753
ONEWEB-0178             
1 48075U 21025AK  26168.80219536  .00000234  00000+0  60685-3 0  9997
2 48075  87.8948 320.1122 0001739 105.2446 254.8876 13.13468514253807
ONEWEB-0108             
1 48076U 21025AL  26168.38054183 -.00000209  00000+0 -60785-3 0  9991
2 48076  87.8963 320.1750 0001903  90.1538 269.9810 13.13470835253678
ONEWEB-0169             
1 48077U 21025AM  26168.79359942  .00000268  00000+0  69938-3 0  9990
2 48077  87.8956 320.1006 0001961  96.6337 263.5015 13.13469955252382
ONEWEB-0176             
1 48210U 21031A   26168.78793598  .00000231  00000+0  58731-3 0  9993
2 48210  87.8964 289.5794 0001894 104.0179 256.1162 13.14503108248392
ONEWEB-0184             
1 48211U 21031B   26168.76097149 -.00000085  00000+0 -26257-3 0  9998
2 48211  87.8975 289.5854 0001595 126.7490 233.3786 13.14503016248361
ONEWEB-0179             
1 48212U 21031C   26168.79688015  .00000155  00000+0  45576-4 0  9992
2 48212  87.8991 286.8255 0218713 255.1940 102.4933 14.25523417249130
ONEWEB-0180             
1 48213U 21031D   26168.76414631 -.00000004  00000+0 -45369-4 0  9996
2 48213  87.8971 289.5809 0002227 111.3633 248.7734 13.14503170248297
ONEWEB-0218             
1 48214U 21031E   26168.78635164  .00000173  00000+0  43250-3 0  9996
2 48214  87.8966 289.5758 0001816 127.4641 232.6654 13.14502328248450
ONEWEB-0209             
1 48215U 21031F   26168.77523995  .00000156  00000+0  38668-3 0  9992
2 48215  87.8965 289.5950 0002130 104.1397 255.9970 13.14501960248454
