OBJECT_NAME,OBJECT_ID,EPOCH,MEAN_MOTION,ECCENTRICITY,INCLINATION,RA_OF_ASC_NODE,ARG_OF_PERICENTER,MEAN_ANOMALY,EPHEMERIS_TYPE,CLASSIFICATION_TYPE,NORAD_CAT_ID,ELEMENT_SET_NO,REV_AT_EPOCH,BSTAR,MEAN_MOTION_DOT,MEAN_MOTION_DDOT
ONEWEB-0158,2021-025N,2026-06-17T19:32:02.300064,13.13471078,.0001587,87.8964,320.0921,96.0892,264.0418,0,U,48054,999,25371,-.58698E-4,-.9E-7,0
ONEWEB-0157,2021-025P,2026-06-17T11:00:07.813728,13.13470380,.00021012,87.8958,320.1686,106.1196,254.0164,0,U,48055,999,25360,-.40128711E-3,-.134E-5,0
ONEWEB-0162,2021-025Q,2026-06-17T12:15:29.632896,13.13469311,.00019605,87.8960,320.1589,94.1493,265.9860,0,U,48056,999,25358,-.31553381E-3,-.102E-5,0
ONEWEB-0155,2021-025R,2026-06-17T10:35:44.275488,13.13470044,.00018264,87.8958,320.1687,102.4443,257.6891,0,U,48057,999,25371,-.57182097E-3,-.196E-5,0
ONEWEB-0149,2021-025S,2026-06-17T11:07:26.362848,13.13470927,.00020324,87.8961,320.1681,93.5231,266.6131,0,U,48058,999,25352,-.24972253E-3,-.78E-6,0
ONEWEB-0148,2021-025T,2026-06-17T19:22:17.188032,13.13469811,.00024,87.8955,320.1066,92.3841,267.7563,0,U,48059,999,25369,.38346E-3,.153E-5,0
ONEWEB-0160,2021-025U,2026-06-17T10:38:10.155840,13.13471245,.00013956,87.8955,320.1750,75.4995,284.6289,0,U,48060,999,25359,-.64182745E-3,-.222E-5,0
ONEWEB-0163,2021-025V,2026-06-17T19:24:42.580224,13.13470854,.0001987,87.8962,320.0967,104.1018,256.0332,0,U,48061,999,25376,.30546E-3,.124E-5,0
ONEWEB-0159,2021-025W,2026-06-17T19:12:31.764960,13.13470486,.000194,87.8964,320.0921,104.0917,256.0428,0,U,48062,999,25368,.68419E-3,.263E-5,0
ONEWEB-0164,2021-025X,2026-06-17T18:45:43.029792,13.13469704,.000178,87.8965,320.1022,96.1699,263.9633,0,U,48063,999,25366,.17152E-3,.75E-6,0
ONEWEB-0167,2021-025Y,2026-06-17T19:25:55.627968,13.13468167,.0001755,87.8954,320.1063,118.3271,241.8035,0,U,48064,999,25365,.22748E-3,.96E-6,0
ONEWEB-0166,2021-025Z,2026-06-17T09:00:39.341376,13.13466637,.00020861,87.8965,320.1641,96.0109,264.1258,0,U,48065,999,25367,-.21223865E-2,-.762E-5,0
ONEWEB-0151,2021-025AA,2026-06-17T09:03:05.812704,13.13470935,.00017551,87.8955,320.1806,100.4190,259.7137,0,U,48066,999,25361,-.82482396E-3,-.288E-5,0
ONEWEB-0170,2021-025AB,2026-06-17T11:04:59.308320,13.13470707,.00013756,87.8957,320.1658,96.8245,263.3041,0,U,48067,999,25358,-.37378516E-3,-.124E-5,0
ONEWEB-0168,2021-025AC,2026-06-17T10:43:02.841024,13.13470004,.00019827,87.8963,320.1685,100.7918,259.3435,0,U,48068,999,25359,-.75565003E-3,-.263E-5,0
ONEWEB-0173,2021-025AD,2026-06-17T10:30:51.759648,13.13469718,.00019533,87.8958,320.1719,108.1824,251.9518,0,U,48069,999,25383,-.51767506E-3,-.176E-5,0
ONEWEB-0171,2021-025AE,2026-06-17T18:43:16.629312,13.13471982,.0001781,87.8953,320.1121,98.8658,261.2673,0,U,48070,999,25369,.46759E-3,.184E-5,0
ONEWEB-0172,2021-025AF,2026-06-17T10:55:13.472256,13.13471323,.00018082,87.8960,320.1668,102.5391,257.5941,0,U,48071,999,25454,-.69078699E-3,-.24E-5,0
ONEWEB-0174,2021-025AG,2026-06-17T19:36:54.792576,13.13469992,.0001993,87.8959,320.0936,96.4446,263.6910,0,U,48072,999,25391,-.28418E-3,-.91E-6,0
ONEWEB-0175,2021-025AH,2026-06-17T11:12:18.451872,13.13471728,.00015532,87.8964,320.1479,103.3068,256.8234,0,U,48073,999,25352,.25991064E-3,.108E-5,0
ONEWEB-0177,2021-025AJ,2026-06-17T18:48:08.968032,13.13471095,.0002049,87.8961,320.1034,100.2512,259.8848,0,U,48074,999,25375,.35318E-3,.142E-5,0
ONEWEB-0178,2021-025AK,2026-06-17T19:15:09.679104,13.13468514,.0001739,87.8948,320.1122,105.2446,254.8876,0,U,48075,999,25380,.60685E-3,.234E-5,0
ONEWEB-0108,2021-025AL,2026-06-17T09:07:58.814112,13.13470835,.00019037,87.8963,320.1750,90.1538,269.9810,0,U,48076,999,25367,-.60784701E-3,-.209E-5,0
ONEWEB-0169,2021-025AM,2026-06-17T19:02:46.989888,13.13469955,.0001961,87.8956,320.1006,96.6337,263.5015,0,U,48077,999,25238,.69938E-3,.268E-5,0
ONEWEB-0176,2021-031A,2026-06-17T18:54:37.668672,13.14503108,.0001894,87.8964,289.5794,104.0179,256.1162,0,U,48210,999,24839,.58731E-3,.231E-5,0
ONEWEB-0184,2021-031B,2026-06-17T18:15:47.936736,13.14503016,.0001595,87.8975,289.5854,126.7490,233.3786,0,U,48211,999,24836,-.26257E-3,-.85E-6,0
ONEWEB-0179,2021-031C,2026-06-17T19:07:30.444960,14.25523417,.0218713,87.8991,286.8255,255.1940,102.4933,0,U,48212,999,24913,.45576E-4,.155E-5,0
ONEWEB-0180,2021-031D,2026-06-17T18:20:22.241184,13.14503170,.0002227,87.8971,289.5809,111.3633,248.7734,0,U,48213,999,24829,-.45369E-4,-.4E-7,0
ONEWEB-0218,2021-031E,2026-06-17T18:52:20.781696,13.14502328,.0001816,87.8966,289.5758,127.4641,232.6654,0,U,48214,999,24845,.4325E-3,.173E-5,0
ONEWEB-0209,2021-031F,2026-06-17T18:36:20.731680,13.14501960,.000213,87.8965,289.5950,104.1397,255.9970,0,U,48215,999,24845,.38668E-3,.156E-5,0
